CCSDS_OMM_VERS = 2.0
CREATION_DATE  = 
ORIGINATOR     = 

OBJECT_NAME    = COSMOS 1933
OBJECT_ID      = 1988-020A
CENTER_NAME    = EARTH
REF_FRAME      = TEME
TIME_SYSTEM    = UTC
MEAN_ELEMENT_THEORY = SGP/SGP4

EPOCH          = 2026-01-26T17:29:14.520192
MEAN_MOTION    = 15.17599457
ECCENTRICITY   = .0004462
INCLINATION    = 82.5143
RA_OF_ASC_NODE = 292.4193
ARG_OF_PERICENTER = 10.1948
MEAN_ANOMALY   = 349.9376

EPHEMERIS_TYPE = 0
CLASSIFICATION_TYPE = U
NORAD_CAT_ID   = 18958
ELEMENT_SET_NO = 999
REV_AT_EPOCH   = 4386
BSTAR          = .3223E-3
MEAN_MOTION_DOT = .6507E-4
MEAN_MOTION_DDOT = 0

CCSDS_OMM_VERS = 2.0
CREATION_DATE  = 
ORIGINATOR     = 

OBJECT_NAME    = SL-3 R/B
OBJECT_ID      = 1988-032B
CENTER_NAME    = EARTH
REF_FRAME      = TEME
TIME_SYSTEM    = UTC
MEAN_ELEMENT_THEORY = SGP/SGP4

EPOCH          = 2026-01-26T18:54:23.676192
MEAN_MOTION    = 15.19326204
ECCENTRICITY   = .0027129
INCLINATION    = 97.5131
RA_OF_ASC_NODE = 10.2265
ARG_OF_PERICENTER = 24.1315
MEAN_ANOMALY   = 336.1184

EPHEMERIS_TYPE = 0
CLASSIFICATION_TYPE = U
NORAD_CAT_ID   = 19046
ELEMENT_SET_NO = 999
REV_AT_EPOCH   = 4574
BSTAR          = .3926E-3
MEAN_MOTION_DOT = .8306E-4
MEAN_MOTION_DDOT = 0

CCSDS_OMM_VERS = 2.0
CREATION_DATE  = 
ORIGINATOR     = 

OBJECT_NAME    = SL-16 R/B
OBJECT_ID      = 1988-039B
CENTER_NAME    = EARTH
REF_FRAME      = TEME
TIME_SYSTEM    = UTC
MEAN_ELEMENT_THEORY = SGP/SGP4

EPOCH          = 2026-01-26T18:33:14.859360
MEAN_MOTION    = 14.19608963
ECCENTRICITY   = .0020291
INCLINATION    = 71.0149
RA_OF_ASC_NODE = 157.1803
ARG_OF_PERICENTER = 39.6545
MEAN_ANOMALY   = 320.6060

EPHEMERIS_TYPE = 0
CLASSIFICATION_TYPE = U
NORAD_CAT_ID   = 19120
ELEMENT_SET_NO = 999
REV_AT_EPOCH   = 95243
BSTAR          = .32143E-4
MEAN_MOTION_DOT = .2E-6
MEAN_MOTION_DDOT = 0

CCSDS_OMM_VERS = 2.0
CREATION_DATE  = 
ORIGINATOR     = 

OBJECT_NAME    = COSMOS 1953
OBJECT_ID      = 1988-050A
CENTER_NAME    = EARTH
REF_FRAME      = TEME
TIME_SYSTEM    = UTC
MEAN_ELEMENT_THEORY = SGP/SGP4

EPOCH          = 2026-01-26T12:28:32.104992
MEAN_MOTION    = 15.27619462
ECCENTRICITY   = .00103771
INCLINATION    = 82.5076
RA_OF_ASC_NODE = 200.6250
ARG_OF_PERICENTER = 273.9450
MEAN_ANOMALY   = 86.0603

EPHEMERIS_TYPE = 0
CLASSIFICATION_TYPE = U
NORAD_CAT_ID   = 19210
ELEMENT_SET_NO = 999
REV_AT_EPOCH   = 3134
BSTAR          = .40360727E-3
MEAN_MOTION_DOT = .10947E-3
MEAN_MOTION_DDOT = 0

CCSDS_OMM_VERS = 2.0
CREATION_DATE  = 
ORIGINATOR     = 

OBJECT_NAME    = SL-8 R/B
OBJECT_ID      = 1988-053B
CENTER_NAME    = EARTH
REF_FRAME      = TEME
TIME_SYSTEM    = UTC
MEAN_ELEMENT_THEORY = SGP/SGP4

EPOCH          = 2026-01-26T10:54:50.145120
MEAN_MOTION    = 14.38888651
ECCENTRICITY   = .00198071
INCLINATION    = 74.0462
RA_OF_ASC_NODE = 190.3071
ARG_OF_PERICENTER = 18.5332
MEAN_ANOMALY   = 43.6567

EPHEMERIS_TYPE = 0
CLASSIFICATION_TYPE = U
NORAD_CAT_ID   = 19257
ELEMENT_SET_NO = 999
REV_AT_EPOCH   = 97052
BSTAR          = .134941E-3
MEAN_MOTION_DOT = .39E-5
MEAN_MOTION_DDOT = 0

CCSDS_OMM_VERS = 2.0
CREATION_DATE  = 
ORIGINATOR     = 

OBJECT_NAME    = COSMOS 1975
OBJECT_ID      = 1988-093A
CENTER_NAME    = EARTH
REF_FRAME      = TEME
TIME_SYSTEM    = UTC
MEAN_ELEMENT_THEORY = SGP/SGP4

EPOCH          = 2026-01-26T09:52:37.517376
MEAN_MOTION    = 15.27256141
ECCENTRICITY   = .00108313
INCLINATION    = 82.5215
RA_OF_ASC_NODE = 160.0846
ARG_OF_PERICENTER = 323.9672
MEAN_ANOMALY   = 36.0836

EPHEMERIS_TYPE = 0
CLASSIFICATION_TYPE = U
NORAD_CAT_ID   = 19573
ELEMENT_SET_NO = 999
REV_AT_EPOCH   = 1295
BSTAR          = .44067592E-3
MEAN_MOTION_DOT = .11821E-3
MEAN_MOTION_DDOT = 0

CCSDS_OMM_VERS = 2.0
CREATION_DATE  = 
ORIGINATOR     = 

OBJECT_NAME    = SL-14 R/B
OBJECT_ID      = 1988-093B
CENTER_NAME    = EARTH
REF_FRAME      = TEME
TIME_SYSTEM    = UTC
MEAN_ELEMENT_THEORY = SGP/SGP4

EPOCH          = 2026-01-26T15:39:44.151840
MEAN_MOTION    = 14.85608873
ECCENTRICITY   = .0020888
INCLINATION    = 82.5293
RA_OF_ASC_NODE = 81.5167
ARG_OF_PERICENTER = 173.0355
MEAN_ANOMALY   = 347.9594

EPHEMERIS_TYPE = 0
CLASSIFICATION_TYPE = U
NORAD_CAT_ID   = 19574
ELEMENT_SET_NO = 999
REV_AT_EPOCH   = 99479
BSTAR          = .81765E-4
MEAN_MOTION_DOT = .734E-5
MEAN_MOTION_DDOT = 0

CCSDS_OMM_VERS = 2.0
CREATION_DATE  = 
ORIGINATOR     = 

OBJECT_NAME    = SL-16 R/B
OBJECT_ID      = 1988-102B
CENTER_NAME    = EARTH
REF_FRAME      = TEME
TIME_SYSTEM    = UTC
MEAN_ELEMENT_THEORY = SGP/SGP4

EPOCH          = 2026-01-26T14:16:06.163392
MEAN_MOTION    = 14.16148000
ECCENTRICITY   = .0011952
INCLINATION    = 70.9973
RA_OF_ASC_NODE = 240.0665
ARG_OF_PERICENTER = 71.8900
MEAN_ANOMALY   = 288.3524

EPHEMERIS_TYPE = 0
CLASSIFICATION_TYPE = U
NORAD_CAT_ID   = 19650
ELEMENT_SET_NO = 999
REV_AT_EPOCH   = 92093
BSTAR          = -.49822E-4
MEAN_MOTION_DOT = -.146E-5
MEAN_MOTION_DDOT = 0

CCSDS_OMM_VERS = 2.0
CREATION_DATE  = 
ORIGINATOR     = 

OBJECT_NAME    = INTERCOSMOS 24
OBJECT_ID      = 1989-080A
CENTER_NAME    = EARTH
REF_FRAME      = TEME
TIME_SYSTEM    = UTC
MEAN_ELEMENT_THEORY = SGP/SGP4

EPOCH          = 2026-01-26T16:56:22.015968
MEAN_MOTION    = 12.59502228
ECCENTRICITY   = .1188721
INCLINATION    = 82.6078
RA_OF_ASC_NODE = 131.7232
ARG_OF_PERICENTER = 30.2726
MEAN_ANOMALY   = 336.1883

EPHEMERIS_TYPE = 0
CLASSIFICATION_TYPE = U
NORAD_CAT_ID   = 20261
ELEMENT_SET_NO = 999
REV_AT_EPOCH   = 66151
BSTAR          = .18765E-3
MEAN_MOTION_DOT = .659E-5
MEAN_MOTION_DDOT = 0

CCSDS_OMM_VERS = 2.0
CREATION_DATE  = 
ORIGINATOR     = 

OBJECT_NAME    = SL-14 R/B
OBJECT_ID      = 1989-080C
CENTER_NAME    = EARTH
REF_FRAME      = TEME
TIME_SYSTEM    = UTC
MEAN_ELEMENT_THEORY = SGP/SGP4

EPOCH          = 2026-01-26T18:54:00.500256
MEAN_MOTION    = 12.50447189
ECCENTRICITY   = .1229478
INCLINATION    = 82.5926
RA_OF_ASC_NODE = 200.0899
ARG_OF_PERICENTER = 280.5937
MEAN_ANOMALY   = 65.9273

EPHEMERIS_TYPE = 0
CLASSIFICATION_TYPE = U
NORAD_CAT_ID   = 20262
ELEMENT_SET_NO = 999
REV_AT_EPOCH   = 65491
BSTAR          = .13585E-3
MEAN_MOTION_DOT = .447E-5
MEAN_MOTION_DDOT = 0

CCSDS_OMM_VERS = 2.0
CREATION_DATE  = 
ORIGINATOR     = 

OBJECT_NAME    = DELTA 1 R/B
OBJECT_ID      = 1989-089B
CENTER_NAME    = EARTH
REF_FRAME      = TEME
TIME_SYSTEM    = UTC
MEAN_ELEMENT_THEORY = SGP/SGP4

EPOCH          = 2026-01-26T13:04:32.671776
MEAN_MOTION    = 14.50622996
ECCENTRICITY   = .0067586
INCLINATION    = 97.0732
RA_OF_ASC_NODE = 240.6779
ARG_OF_PERICENTER = 255.6665
MEAN_ANOMALY   = 103.7023

EPHEMERIS_TYPE = 0
CLASSIFICATION_TYPE = U
NORAD_CAT_ID   = 20323
ELEMENT_SET_NO = 999
REV_AT_EPOCH   = 88962
BSTAR          = .1866E-3
MEAN_MOTION_DOT = .718E-5
MEAN_MOTION_DDOT = 0

CCSDS_OMM_VERS = 2.0
CREATION_DATE  = 
ORIGINATOR     = 

OBJECT_NAME    = ARIANE 40 R/B
OBJECT_ID      = 1990-005H
CENTER_NAME    = EARTH
REF_FRAME      = TEME
TIME_SYSTEM    = UTC
MEAN_ELEMENT_THEORY = SGP/SGP4

EPOCH          = 2026-01-26T15:10:08.337216
MEAN_MOTION    = 14.39839800
ECCENTRICITY   = .0009474
INCLINATION    = 98.3173
RA_OF_ASC_NODE = 88.5275
ARG_OF_PERICENTER = 337.6451
MEAN_ANOMALY   = 22.4323

EPHEMERIS_TYPE = 0
CLASSIFICATION_TYPE = U
NORAD_CAT_ID   = 20443
ELEMENT_SET_NO = 999
REV_AT_EPOCH   = 88675
BSTAR          = .17404E-3
MEAN_MOTION_DOT = .504E-5
MEAN_MOTION_DDOT = 0

