COSMOS 1933             
1 18958U 88020A   26026.72864028  .00006507  00000+0  32230-3 0  9992
2 18958  82.5143 292.4193 0004462  10.1948 349.9376 15.17599457 43860
SL-3 R/B                
1 19046U 88032B   26026.78777403  .00008306  00000+0  39260-3 0  9999
2 19046  97.5131  10.2265 0027129  24.1315 336.1184 15.19326204 45740
SL-16 R/B               
1 19120U 88039B   26026.77308865  .00000020  00000+0  32143-4 0  9999
2 19120  71.0149 157.1803 0020291  39.6545 320.6060 14.19608963952435
COSMOS 1953             
1 19210U 88050A   26026.51981603  .00010947  00000+0  40361-3 0  9990
2 19210  82.5076 200.6250 0010377 273.9450  86.0603 15.27619462 31343
SL-8 R/B                
1 19257U 88053B   26026.45474705  .00000390  00000+0  13494-3 0  9995
2 19257  74.0462 190.3071 0019807  18.5332  43.6567 14.38888651970523
COSMOS 1975             
1 19573U 88093A   26026.41154534  .00011821  00000+0  44068-3 0  9993
2 19573  82.5215 160.0846 0010831 323.9672  36.0836 15.27256141 12957
SL-14 R/B               
1 19574U 88093B   26026.65259435  .00000734  00000+0  81765-4 0  9993
2 19574  82.5293  81.5167 0020888 173.0355 347.9594 14.85608873994794
SL-16 R/B               
1 19650U 88102B   26026.59451578 -.00000146  00000+0 -49822-4 0  9991
2 19650  70.9973 240.0665 0011952  71.8900 288.3524 14.16148000920934
INTERCOSMOS 24          
1 20261U 89080A   26026.70581037  .00000659  00000+0  18765-3 0  9992
2 20261  82.6078 131.7232 1188721  30.2726 336.1883 12.59502228661518
SL-14 R/B               
1 20262U 89080C   26026.78750579  .00000447  00000+0  13585-3 0  9990
2 20262  82.5926 200.0899 1229478 280.5937  65.9273 12.50447189654919
DELTA 1 R/B             
1 20323U 89089B   26026.54482259  .00000718  00000+0  18660-3 0  9998
2 20323  97.0732 240.6779 0067586 255.6665 103.7023 14.50622996889625
ARIANE 40 R/B           
1 20443U 90005H   26026.63204094  .00000504  00000+0  17404-3 0  9998
2 20443  98.3173  88.5275 0009474 337.6451  22.4323 14.39839800886759
